STARLINK-30957          
1 58453U 23183S   26067.99738398  .00002651  00000+0  10847-3 0  9995
2 58453  43.0053  45.0847 0001531 274.8140  85.2537 15.26747443126637
TOMORROW-S4             
1 62386U 24247K   26068.53305366  .00012677  00000+0  46927-3 0  9990
2 62386  44.9818 117.9996 0004434 210.4078 149.6548 15.27717249 67702
